[
    {
        "Altitude(m)": 707307.4260824966,
        "Argument of Periapsis(deg)": 0.009112096949301655,
        "Eccentricity": 0.0,
        "Inclination(deg)": 45.0,
        "Latitude(deg)": 45.1446176076864,
        "Longitude(deg)": 10.878932989523495,
        "Mean Anomaly(deg)": 91.04477331798465,
        "RAAN(deg)": 19.991398446833436,
        "Satellite Name": "Constellation 1 93",
        "Satellite Number": 93,
        "Semi-Major Axis(m)": 7083131.272910544,
        "Time(s)": 152
    },
    {
        "Altitude(m)": 707307.1724602743,
        "Argument of Periapsis(deg)": 0.009172044955547059,
        "Eccentricity": 0.0,
        "Inclination(deg)": 45.0,
        "Latitude(deg)": 45.14346566087907,
        "Longitude(deg)": 10.960687303008946,
        "Mean Anomaly(deg)": 91.10547445823457,
        "RAAN(deg)": 19.991341857667866,
        "Satellite Name": "Constellation 1 93",
        "Satellite Number": 93,
        "Semi-Major Axis(m)": 7083131.272910544,
        "Time(s)": 153
    },
    {
        "Altitude(m)": 707306.9042131264,
        "Argument of Periapsis(deg)": 0.009231992961792466,
        "Eccentricity": 0.0,
        "Inclination(deg)": 45.0,
        "Latitude(deg)": 45.142249191859584,
        "Longitude(deg)": 11.042438063649419,
        "Mean Anomaly(deg)": 91.16617559848446,
        "RAAN(deg)": 19.9912852685023,
        "Satellite Name": "Constellation 1 93",
        "Satellite Number": 93,
        "Semi-Major Axis(m)": 7083131.272910544,
        "Time(s)": 154
    },
    {
        "Altitude(m)": 707306.6213426602,
        "Argument of Periapsis(deg)": 0.009291940968037872,
        "Eccentricity": 0.0,
        "Inclination(deg)": 45.0,
        "Latitude(deg)": 45.14096820606089,
        "Longitude(deg)": 11.124185078203004,
        "Mean Anomaly(deg)": 91.22687673873435,
        "RAAN(deg)": 19.99122867933673,
        "Satellite Name": "Constellation 1 93",
        "Satellite Number": 93,
        "Semi-Major Axis(m)": 7083131.272910544,
        "Time(s)": 155
    },
    {
        "Altitude(m)": 707306.3238505624,
        "Argument of Periapsis(deg)": 0.009351888974283276,
        "Eccentricity": 0.0,
        "Inclination(deg)": 45.0,
        "Latitude(deg)": 45.1396227092032,
        "Longitude(deg)": 11.205927985398409,
        "Mean Anomaly(deg)": 91.28757787898427,
        "RAAN(deg)": 19.99117209017116,
        "Satellite Name": "Constellation 1 93",
        "Satellite Number": 93,
        "Semi-Major Axis(m)": 7083131.272910544,
        "Time(s)": 156
    },
    {
        "Altitude(m)": 707306.0117386108,
        "Argument of Periapsis(deg)": 0.00941183698052868,
        "Eccentricity": 0.0,
        "Inclination(deg)": 45.0,
        "Latitude(deg)": 45.13821270729504,
        "Longitude(deg)": 11.28766692832619,
        "Mean Anomaly(deg)": 91.34827901923416,
        "RAAN(deg)": 19.991115501005588,
        "Satellite Name": "Constellation 1 93",
        "Satellite Number": 93,
        "Semi-Major Axis(m)": 7083131.272910544,
        "Time(s)": 157
    },
    {
        "Altitude(m)": 707305.6850086584,
        "Argument of Periapsis(deg)": 0.009471784986774088,
        "Eccentricity": 0.0,
        "Inclination(deg)": 45.0,
        "Latitude(deg)": 45.13673820663119,
        "Longitude(deg)": 11.369401545860269,
        "Mean Anomaly(deg)": 91.40898015948405,
        "RAAN(deg)": 19.991058911840017,
        "Satellite Name": "Constellation 1 93",
        "Satellite Number": 93,
        "Semi-Major Axis(m)": 7083131.272910544,
        "Time(s)": 158
    },
    {
        "Altitude(m)": 707305.3436626577,
        "Argument of Periapsis(deg)": 0.009531732993019492,
        "Eccentricity": 0.0,
        "Inclination(deg)": 45.0,
        "Latitude(deg)": 45.1351992137939,
        "Longitude(deg)": 11.451131645049276,
        "Mean Anomaly(deg)": 91.46968129973394,
        "RAAN(deg)": 19.99100232267445,
        "Satellite Name": "Constellation 1 93",
        "Satellite Number": 93,
        "Semi-Major Axis(m)": 7083131.272910544,
        "Time(s)": 159
    },
    {
        "Altitude(m)": 707304.9877026387,
        "Argument of Periapsis(deg)": 0.009591680999264898,
        "Eccentricity": 0.0,
        "Inclination(deg)": 45.0,
        "Latitude(deg)": 45.13359573565237,
        "Longitude(deg)": 11.532857033023303,
        "Mean Anomaly(deg)": 91.53038243998385,
        "RAAN(deg)": 19.99094573350888,
        "Satellite Name": "Constellation 1 93",
        "Satellite Number": 93,
        "Semi-Major Axis(m)": 7083131.272910544,
        "Time(s)": 160
    },
    {
        "Altitude(m)": 707304.6171307099,
        "Argument of Periapsis(deg)": 0.009651629005510304,
        "Eccentricity": 0.0,
        "Inclination(deg)": 45.0,
        "Latitude(deg)": 45.13192777936268,
        "Longitude(deg)": 11.614577516996995,
        "Mean Anomaly(deg)": 91.59108358023374,
        "RAAN(deg)": 19.99088914434331,
        "Satellite Name": "Constellation 1 93",
        "Satellite Number": 93,
        "Semi-Major Axis(m)": 7083131.272910544,
        "Time(s)": 161
    },
    {
        "Altitude(m)": 707304.2319490776,
        "Argument of Periapsis(deg)": 0.00971157701175571,
        "Eccentricity": 0.0,
        "Inclination(deg)": 45.0,
        "Latitude(deg)": 45.130195352367494,
        "Longitude(deg)": 11.696292904273221,
        "Mean Anomaly(deg)": 91.65178472048366,
        "RAAN(deg)": 19.990832555177743,
        "Satellite Name": "Constellation 1 93",
        "Satellite Number": 93,
        "Semi-Major Axis(m)": 7083131.272910544,
        "Time(s)": 162
    },
    {
        "Altitude(m)": 707303.8321600294,
        "Argument of Periapsis(deg)": 0.009771525018001118,
        "Eccentricity": 0.0,
        "Inclination(deg)": 45.0,
        "Latitude(deg)": 45.12839846239577,
        "Longitude(deg)": 11.778002834149381,
        "Mean Anomaly(deg)": 91.71248586073357,
        "RAAN(deg)": 19.990775966012173,
        "Satellite Name": "Constellation 1 93",
        "Satellite Number": 93,
        "Semi-Major Axis(m)": 7083131.272910544,
        "Time(s)": 163
    },
    {
        "Altitude(m)": 707303.4177659352,
        "Argument of Periapsis(deg)": 0.00983147302424652,
        "Eccentricity": 0.0,
        "Inclination(deg)": 45.0,
        "Latitude(deg)": 45.12653711746366,
        "Longitude(deg)": 11.859707450309173,
        "Mean Anomaly(deg)": 91.77318700098344,
        "RAAN(deg)": 19.990719376846602,
        "Satellite Name": "Constellation 1 93",
        "Satellite Number": 93,
        "Semi-Major Axis(m)": 7083131.272910544,
        "Time(s)": 164
    },
    {
        "Altitude(m)": 707302.9887692502,
        "Argument of Periapsis(deg)": 0.009891421030491928,
        "Eccentricity": 0.0,
        "Inclination(deg)": 45.0,
        "Latitude(deg)": 45.12461132587268,
        "Longitude(deg)": 11.941406392243573,
        "Mean Anomaly(deg)": 91.83388814123336,
        "RAAN(deg)": 19.990662787681035,
        "Satellite Name": "Constellation 1 93",
        "Satellite Number": 93,
        "Semi-Major Axis(m)": 7083131.272910544,
        "Time(s)": 165
    },
    {
        "Altitude(m)": 707302.5451725269,
        "Argument of Periapsis(deg)": 0.009951369036737332,
        "Eccentricity": 0.0,
        "Inclination(deg)": 45.0,
        "Latitude(deg)": 45.122621096210544,
        "Longitude(deg)": 12.023099467642485,
        "Mean Anomaly(deg)": 91.89458928148325,
        "RAAN(deg)": 19.99060619851546,
        "Satellite Name": "Constellation 1 93",
        "Satellite Number": 93,
        "Semi-Major Axis(m)": 7083131.272910544,
        "Time(s)": 166
    },
    {
        "Altitude(m)": 707302.086978382,
        "Argument of Periapsis(deg)": 0.010011317042982738,
        "Eccentricity": 0.0,
        "Inclination(deg)": 45.0,
        "Latitude(deg)": 45.12056643735085,
        "Longitude(deg)": 12.104786484301234,
        "Mean Anomaly(deg)": 91.95529042173314,
        "RAAN(deg)": 19.990549609349895,
        "Satellite Name": "Constellation 1 93",
        "Satellite Number": 93,
        "Semi-Major Axis(m)": 7083131.272910544,
        "Time(s)": 167
    },
    {
        "Altitude(m)": 707301.6141895361,
        "Argument of Periapsis(deg)": 0.010071265049228144,
        "Eccentricity": 0.0,
        "Inclination(deg)": 45.0,
        "Latitude(deg)": 45.118447358452826,
        "Longitude(deg)": 12.18646725012395,
        "Mean Anomaly(deg)": 92.01599156198306,
        "RAAN(deg)": 19.990493020184324,
        "Satellite Name": "Constellation 1 93",
        "Satellite Number": 93,
        "Semi-Major Axis(m)": 7083131.272910544,
        "Time(s)": 168
    },
    {
        "Altitude(m)": 707301.1268087862,
        "Argument of Periapsis(deg)": 0.01013121305547355,
        "Eccentricity": 0.0,
        "Inclination(deg)": 45.0,
        "Latitude(deg)": 45.1162638689611,
        "Longitude(deg)": 12.268141573126863,
        "Mean Anomaly(deg)": 92.07669270223295,
        "RAAN(deg)": 19.990436431018754,
        "Satellite Name": "Constellation 1 93",
        "Satellite Number": 93,
        "Semi-Major Axis(m)": 7083131.272910544,
        "Time(s)": 169
    },
    {
        "Altitude(m)": 707300.6248390145,
        "Argument of Periapsis(deg)": 0.010191161061718957,
        "Eccentricity": 0.0,
        "Inclination(deg)": 45.0,
        "Latitude(deg)": 45.11401597860556,
        "Longitude(deg)": 12.34980926144192,
        "Mean Anomaly(deg)": 92.13739384248284,
        "RAAN(deg)": 19.990379841853187,
        "Satellite Name": "Constellation 1 93",
        "Satellite Number": 93,
        "Semi-Major Axis(m)": 7083131.272910544,
        "Time(s)": 170
    }
]